1 43013U 17073A   26006.30790171  .00000126  00000+0  80695-4 0  9991
2 43013  98.7629 307.3394 0001808  51.8724 308.2615 14.19533762421505
